{
  "type": "FeatureCollection",
  "features": [
    {
      "type": "Feature",
      "properties": {
        "norad_id": 40810,
        "name": "COSMOS 2251 DEB",
        "group": "cosmos-2251-debris",
        "lat": 22.55365958207671,
        "lon": -94.25854127456324,
        "alt_km": 696.4845365077572,
        "timestamp": "2025-12-03T08:58:46.401450+00:00",
        "meta_object_name": "COSMOS 2251 DEB",
        "meta_object_id": "1993-036BWP",
        "meta_epoch": "2025-12-02T07:34:18.151104",
        "meta_mean_motion": 14.58589191,
        "meta_eccentricity": 0.00187807,
        "meta_inclination": 74.0355,
        "meta_ra_of_asc_node": 94.5842,
        "meta_arg_of_pericenter": 246.5096,
        "meta_mean_anomaly": 113.4096,
        "meta_ephemeris_type": 0,
        "meta_classification_type": "U",
        "meta_norad_cat_id": 40810,
        "meta_element_set_no": 999,
        "meta_rev_at_epoch": 61531,
        "meta_bstar": 0.001131408,
        "meta_mean_motion_dot": 5.252e-05,
        "meta_mean_motion_ddot": 0,
        "tle_line1": "1 40810U 93036BWP 25336.31548786  .00005252  00000+0  11314-2 0  9990",
        "tle_line2": "2 40810  74.0355  94.5842 0018780 246.5096 113.4096 14.58589191615318"
      },
      "geometry": {
        "type": "Point",
        "coordinates": [
          -94.25854127456324,
          22.55365958207671
        ]
      }
    },
    {
      "type": "Feature",
      "properties": {
        "norad_id": 46271,
        "name": "COSMOS 2251 DEB",
        "group": "cosmos-2251-debris",
        "lat": -70.72136224016604,
        "lon": 40.95987623800552,
        "alt_km": 714.3309719713234,
        "timestamp": "2025-12-03T08:58:46.401460+00:00",
        "meta_object_name": "COSMOS 2251 DEB",
        "meta_object_id": "1993-036BWT",
        "meta_epoch": "2025-12-02T01:54:44.684640",
        "meta_mean_motion": 14.51374966,
        "meta_eccentricity": 0.00407046,
        "meta_inclination": 74.046,
        "meta_ra_of_asc_node": 98.2636,
        "meta_arg_of_pericenter": 221.9387,
        "meta_mean_anomaly": 137.8656,
        "meta_ephemeris_type": 0,
        "meta_classification_type": "U",
        "meta_norad_cat_id": 46271,
        "meta_element_set_no": 999,
        "meta_rev_at_epoch": 84487,
        "meta_bstar": 0.0004698569,
        "meta_mean_motion_dot": 1.865e-05,
        "meta_mean_motion_ddot": 0,
        "tle_line1": "1 46271U 93036BWT 25336.07968385  .00001865  00000+0  46986-3 0  9991",
        "tle_line2": "2 46271  74.0460  98.2636 0040704 221.9387 137.8656 14.51374966844877"
      },
      "geometry": {
        "type": "Point",
        "coordinates": [
          40.95987623800552,
          -70.72136224016604
        ]
      }
    },
    {
      "type": "Feature",
      "properties": {
        "norad_id": 46430,
        "name": "COSMOS 2251 DEB",
        "group": "cosmos-2251-debris",
        "lat": -6.0036435356680125,
        "lon": 12.371230625905032,
        "alt_km": 686.4485335328609,
        "timestamp": "2025-12-03T08:58:46.401470+00:00",
        "meta_object_name": "COSMOS 2251 DEB",
        "meta_object_id": "1993-036BWU",
        "meta_epoch": "2025-11-27T20:37:49.076256",
        "meta_mean_motion": 14.50926548,
        "meta_eccentricity": 0.01032827,
        "meta_inclination": 73.9144,
        "meta_ra_of_asc_node": 24.5566,
        "meta_arg_of_pericenter": 307.3694,
        "meta_mean_anomaly": 51.8093,
        "meta_ephemeris_type": 0,
        "meta_classification_type": "U",
        "meta_norad_cat_id": 46430,
        "meta_element_set_no": 999,
        "meta_rev_at_epoch": 79467,
        "meta_bstar": 0.0020948934,
        "meta_mean_motion_dot": 8.844e-05,
        "meta_mean_motion_ddot": 0,
        "tle_line1": "1 46430U 93036BWU 25331.85959579  .00008844  00000+0  20949-2 0  9998",
        "tle_line2": "2 46430  73.9144  24.5566 0103282 307.3694  51.8093 14.50926548794676"
      },
      "geometry": {
        "type": "Point",
        "coordinates": [
          12.371230625905032,
          -6.0036435356680125
        ]
      }
    },
    {
      "type": "Feature",
      "properties": {
        "norad_id": 46432,
        "name": "COSMOS 2251 DEB",
        "group": "cosmos-2251-debris",
        "lat": 21.688967559125047,
        "lon": 132.66276922614384,
        "alt_km": 1376.0662046597454,
        "timestamp": "2025-12-03T08:58:46.401480+00:00",
        "meta_object_name": "COSMOS 2251 DEB",
        "meta_object_id": "1993-036BWW",
        "meta_epoch": "2025-11-27T18:14:15.472320",
        "meta_mean_motion": 13.36590206,
        "meta_eccentricity": 0.04736106,
        "meta_inclination": 73.8709,
        "meta_ra_of_asc_node": 134.8972,
        "meta_arg_of_pericenter": 254.8276,
        "meta_mean_anomaly": 119.6249,
        "meta_ephemeris_type": 0,
        "meta_classification_type": "U",
        "meta_norad_cat_id": 46432,
        "meta_element_set_no": 999,
        "meta_rev_at_epoch": 66766,
        "meta_bstar": 0.00093134132,
        "meta_mean_motion_dot": 8.92e-06,
        "meta_mean_motion_ddot": 0,
        "tle_line1": "1 46432U 93036BWW 25331.75990130  .00000892  00000+0  93134-3 0  9999",
        "tle_line2": "2 46432  73.8709 134.8972 0473610 254.8276 119.6249 13.36590206667662"
      },
      "geometry": {
        "type": "Point",
        "coordinates": [
          132.66276922614384,
          21.688967559125047
        ]
      }
    },
    {
      "type": "Feature",
      "properties": {
        "norad_id": 47045,
        "name": "COSMOS 2251 DEB",
        "group": "cosmos-2251-debris",
        "lat": -35.790532247656074,
        "lon": -1.6894502452503497,
        "alt_km": 768.5936483727592,
        "timestamp": "2025-12-03T08:58:46.401489+00:00",
        "meta_object_name": "COSMOS 2251 DEB",
        "meta_object_id": "1993-036BWZ",
        "meta_epoch": "2025-11-29T08:01:04.631232",
        "meta_mean_motion": 14.3888848,
        "meta_eccentricity": 0.00299793,
        "meta_inclination": 74.0568,
        "meta_ra_of_asc_node": 173.8561,
        "meta_arg_of_pericenter": 317.2901,
        "meta_mean_anomaly": 221.317,
        "meta_ephemeris_type": 0,
        "meta_classification_type": "U",
        "meta_norad_cat_id": 47045,
        "meta_element_set_no": 999,
        "meta_rev_at_epoch": 7612,
        "meta_bstar": 7.6430524e-05,
        "meta_mean_motion_dot": 2.1e-06,
        "meta_mean_motion_ddot": 0,
        "tle_line1": "1 47045U 93036BWZ 25333.33408138  .00000210  00000+0  76431-4 0  9994",
        "tle_line2": "2 47045  74.0568 173.8561 0029979 317.2901 221.3170 14.38888480 76126"
      },
      "geometry": {
        "type": "Point",
        "coordinates": [
          -1.6894502452503497,
          -35.790532247656074
        ]
      }
    },
    {
      "type": "Feature",
      "properties": {
        "norad_id": 47048,
        "name": "COSMOS 2251 DEB",
        "group": "cosmos-2251-debris",
        "lat": 50.00732709801476,
        "lon": -3.0590536646064015,
        "alt_km": 752.1227655459661,
        "timestamp": "2025-12-03T08:58:46.401520+00:00",
        "meta_object_name": "COSMOS 2251 DEB",
        "meta_object_id": "1993-036BXC",
        "meta_epoch": "2025-11-30T18:42:56.797920",
        "meta_mean_motion": 14.52124496,
        "meta_eccentricity": 0.01339598,
        "meta_inclination": 73.9788,
        "meta_ra_of_asc_node": 341.8156,
        "meta_arg_of_pericenter": 172.9598,
        "meta_mean_anomaly": 4.5515,
        "meta_ephemeris_type": 0,
        "meta_classification_type": "U",
        "meta_norad_cat_id": 47048,
        "meta_element_set_no": 999,
        "meta_rev_at_epoch": 59516,
        "meta_bstar": 0.0010173853,
        "meta_mean_motion_dot": 4.606e-05,
        "meta_mean_motion_ddot": 0,
        "tle_line1": "1 47048U 93036BXC 25334.77982405  .00004606  00000+0  10174-2 0  9993",
        "tle_line2": "2 47048  73.9788 341.8156 0133959 172.9598   4.5515 14.52124496595160"
      },
      "geometry": {
        "type": "Point",
        "coordinates": [
          -3.0590536646064015,
          50.00732709801476
        ]
      }
    },
    {
      "type": "Feature",
      "properties": {
        "norad_id": 47051,
        "name": "COSMOS 2251 DEB",
        "group": "cosmos-2251-debris",
        "lat": 8.924443863907104,
        "lon": -158.5407312459182,
        "alt_km": 860.8916376492662,
        "timestamp": "2025-12-03T08:58:46.401531+00:00",
        "meta_object_name": "COSMOS 2251 DEB",
        "meta_object_id": "1993-036BXF",
        "meta_epoch": "2025-12-01T21:55:10.667424",
        "meta_mean_motion": 13.67061051,
        "meta_eccentricity": 0.03413205,
        "meta_inclination": 74.1012,
        "meta_ra_of_asc_node": 201.2803,
        "meta_arg_of_pericenter": 317.1785,
        "meta_mean_anomaly": 62.4119,
        "meta_ephemeris_type": 0,
        "meta_classification_type": "U",
        "meta_norad_cat_id": 47051,
        "meta_element_set_no": 999,
        "meta_rev_at_epoch": 59790,
        "meta_bstar": 0.0015947644,
        "meta_mean_motion_dot": 1.973e-05,
        "meta_mean_motion_ddot": 0,
        "tle_line1": "1 47051U 93036BXF 25335.91331791  .00001973  00000+0  15948-2 0  9998",
        "tle_line2": "2 47051  74.1012 201.2803 0341320 317.1785  62.4119 13.67061051597908"
      },
      "geometry": {
        "type": "Point",
        "coordinates": [
          -158.5407312459182,
          8.924443863907104
        ]
      }
    }
  ]
}